EUTELSAT QUANTUM        
1 49056U 21069B   25317.82059992  .00000126  00000+0  00000+0 0  9991
2 49056   0.0333  81.7291 0003196 170.7747 143.8059  1.00272767 15766
EUTELSAT KONNECT VHTS   
1 53765U 22110A   25317.59759257  .00000017  00000+0  00000+0 0  9995
2 53765   0.0545  99.5939 0003023 109.1257  62.1094  1.00272126  4668
EUTELSAT HOTBIRD 13F    
1 54048U 22134A   25317.80339058  .00000087  00000+0  00000+0 0  9990
2 54048   0.0554 288.5659 0002212  69.6156 357.2045  1.00270287 11218
EUTELSAT HOTBIRD 13G    
1 54225U 22146A   25317.80339051  .00000087  00000+0  00000+0 0  9993
2 54225   0.0455 240.3912 0001842 301.7701 173.2384  1.00271262  5306
EUTELSAT 10B            
1 54259U 22157A   25317.24231839  .00000066  00000+0  00000+0 0  9992
2 54259   0.0573  96.7823 0000968  62.4510 350.5926  1.00269970 10867
EUTELSAT 36D            
1 59346U 24059A   25317.00738935  .00000153  00000+0  00000+0 0  9997
2 59346   0.0198 277.8222 0000645  53.1542 119.9343  1.00270519  5989
